{"type": "FeatureCollection", "features": [ {"type": "Feature", "properties": {"norad_id": 64902, "name": "CO3D 2", "group": "resource", "lat": 12.434298122028762, "lon": -108.96558821946194, "alt_km": 662.8321408735419, "timestamp": "2025-12-18T21:31:50.640191+00:00", "meta": {"OBJECT_NAME": "CO3D 2", "OBJECT_ID": "2025-156D", "EPOCH": "2025-12-17T16:22:38.080416", "MEAN_MOTION": 15.1961406, "ECCENTRICITY": 0.03739507, "INCLINATION": 96.5359, "RA_OF_ASC_NODE": 68.5306, "ARG_OF_PERICENTER": 43.1546, "MEAN_ANOMALY": 319.8361, "EPHEMERIS_TYPE": 0, "CLASSIFICATION_TYPE": "U", "NORAD_CAT_ID": 64902, "ELEMENT_SET_NO": 999, "REV_AT_EPOCH": 2195, "BSTAR": -1.8482e-06, "MEAN_MOTION_DOT": -7.34e-06, "MEAN_MOTION_DDOT": 1.361317e-06}, "tle": {"line1": "1 64902U 25156D   25351.68238519 -.00000734  13613-5 -18482-5 0  9991", "line2": "2 64902  96.5359  68.5306 0373950  43.1546 319.8361 15.19614060 21959"}}, "geometry": {"type": "Point", "coordinates": [-108.96558821946194, 12.434298122028762]}}, {"type": "Feature", "properties": {"norad_id": 64903, "name": "CO3D 1", "group": "resource", "lat": -25.40852937848334, "lon": -114.5801090616301, "alt_km": 523.2088084970856, "timestamp": "2025-12-18T21:31:50.640201+00:00", "meta": {"OBJECT_NAME": "CO3D 1", "OBJECT_ID": "2025-156E", "EPOCH": "2025-12-17T11:36:30.873888", "MEAN_MOTION": 15.26220326, "ECCENTRICITY": 0.01994167, "INCLINATION": 97.9769, "RA_OF_ASC_NODE": 67.73, "ARG_OF_PERICENTER": 106.5315, "MEAN_ANOMALY": 255.7931, "EPHEMERIS_TYPE": 0, "CLASSIFICATION_TYPE": "U", "NORAD_CAT_ID": 64903, "ELEMENT_SET_NO": 999, "REV_AT_EPOCH": 2192, "BSTAR": 7.9752951e-05, "MEAN_MOTION_DOT": 3.599e-05, "MEAN_MOTION_DDOT": 0}, "tle": {"line1": "1 64903U 25156E   25351.48369067  .00003599  00000+0  79753-4 0  9990", "line2": "2 64903  97.9769  67.7300 0199416 106.5315 255.7931 15.26220326 21920"}}, "geometry": {"type": "Point", "coordinates": [-114.5801090616301, -25.40852937848334]}}, {"type": "Feature", "properties": {"norad_id": 66514, "name": "SENTINEL-6B", "group": "resource", "lat": 50.76793484028688, "lon": -177.36519782188827, "alt_km": 1335.2190392956381, "timestamp": "2025-12-18T21:31:50.640211+00:00", "meta": {"OBJECT_NAME": "SENTINEL-6B", "OBJECT_ID": "2025-264A", "EPOCH": "2025-12-12T06:01:21.428544", "MEAN_MOTION": 12.81479578, "ECCENTRICITY": 0.00078482, "INCLINATION": 66.0385, "RA_OF_ASC_NODE": 163.4531, "ARG_OF_PERICENTER": 270.1376, "MEAN_ANOMALY": 89.874, "EPHEMERIS_TYPE": 0, "CLASSIFICATION_TYPE": "U", "NORAD_CAT_ID": 66514, "ELEMENT_SET_NO": 999, "REV_AT_EPOCH": 322, "BSTAR": 0.00018573353, "MEAN_MOTION_DOT": -1.8e-07, "MEAN_MOTION_DDOT": 0}, "tle": {"line1": "1 66514U 25264A   25346.25094246 -.00000018  00000+0  18573-3 0  9999", "line2": "2 66514  66.0385 163.4531 0007848 270.1376  89.8740 12.81479578  3223"}}, "geometry": {"type": "Point", "coordinates": [-177.36519782188827, 50.76793484028688]}}]}